CALSPHERE 1             
1 00900U 64063C   22258.40534918  .00000588  00000+0  61624-3 0  9993
2 00900  90.1787  42.5543 0028992 111.3209 302.7326 13.73889254883016
CALSPHERE 2             
1 00902U 64063E   22258.39961917  .00000031  00000+0  33400-4 0  9991
2 00902  90.1915  45.6930 0016619 244.0129 174.2739 13.52721763670935
LCS 1                   
1 01361U 65034C   22258.49337955  .00000024  00000+0  19813-2 0  9992
2 01361  32.1377 191.5089 0012621 197.3483 162.6584  9.89302015 74141
TEMPSAT 1               
1 01512U 65065E   22258.44521286  .00000046  00000+0  72549-4 0  9992
2 01512  89.9182 217.9154 0071247 136.5895 342.6375 13.33454821777369
CALSPHERE 4A            
1 01520U 65065H   22258.59907522  .00000097  00000+0  16957-3 0  9994
2 01520  89.9870 130.1028 0070037  10.7308  21.8755 13.35903723779694
OPS 5712 (P/L 160)      
1 02826U 67053A   22258.57936343  .00002899  00000+0  74842-3 0  9993
2 02826  69.9275  77.6057 0007024 240.4136 119.6298 14.50937940865808
OPS 5712 (P/L 153)      
1 02874U 67053H   22258.46523999  .00000045  00000+0  71319-4 0  9991
2 02874  69.9745 172.3430 0007547 197.7385 162.3458 13.96416161815399
SURCAL 150B             
1 02909U 67053J   22258.55861717  .00005064  00000+0  96418-3 0  9995
2 02909  69.9475  62.6451 0005470 266.5288  93.5227 14.64611032876804
RIGIDSPHERE 2 (LCS 4)   
1 05398U 71067E   22258.54981941  .00000621  00000+0  20949-3 0  9991
2 05398  87.6291 358.1446 0065398  88.4744 272.3943 14.34314973677174
COSMOS 2493 (SKRL-756 1)
1 39490U 13078A   22258.46735610  .00001615  00000+0  16610-3 0  9994
2 39490  82.4194 147.9234 0017490 153.3931 206.8189 14.89624120473095
COSMOS 2494 (SKRL-756 2)
1 39491U 13078B   22258.48874191  .00001688  00000+0  16714-3 0  9990
2 39491  82.4187 141.4869 0022536 130.5598 229.7588 14.91086462473679
